{
"type": "FeatureCollection",
"name": "mettur_official_dam_reference",
"crs": { "type": "name", "properties": { "name": "urn:ogc:def:crs:OGC:1.3:CRS84" } },
"features": [
{ "type": "Feature", "properties": { "PIC": "TN12HH0005", "dm_name": "Mettur", "sdso": "Tamil Nadu", "state": "Tamil Nadu", "district": "Salem", "river": "Cauvery", "incharge": "Wrd, Trichy Region", "ht_found": 65.53, "cmp_year": 1934, "basin": "Cauvery", "mx_wt_lel": 242.62, "frl": 240.79, "gs_st_cap": 2708.79, "ds_sp_cap": 12546.79, "dm_length": 0, "dm_type": null, "purpose": "Irrigation / Hydropower / Water Supply / Fishing", "latitude": "11° 48' 11.000\" N", "longitude": "77° 48' 24.000\" E" }, "geometry": { "type": "Point", "coordinates": [ 77.806666670330813, 11.803055560295791 ] } }
]
}
